useridentifier,;Name,;Store Number,;Phone Number,;Street Combined,;Street 1,;City,;Country Subdivision,;Country,;Postal Code,;Coordinates,;Latitude,;Longitude,
5098,;Damansara Uptown 1,;33951-95923,;03-77318662,;110G Jalan SS 21//39 Damansara Utama,;110G Jalan SS 21//39 Damansara Utama,;Petaling Jaya,;10,;MY,;47400,;(3.1332700252533 101.621452331543),;3.133270025253296,;101.62145233154297,
5101,;Mahkota Parade,;33958-98092,;06282 0721,;No. 1 Jalan Merdeka Lot No. G17/EG2,;No. 1 Jalan Merdeka,;Melaka,;4,;MY,;75000,;(2.18920803070068 102.250045776367),;2.189208030700684,;102.25004577636719,
5102,;Bangsar Village 1,;33952-96324,;03-22013935,;Jalan Telawi 1 Bangsar Baru Lot G7 Ground Floor,;Jalan Telawi 1 Bangsar Baru,;Kuala Lumpur,;14,;MY,;59100,;(3.13070297241211 101.671348571777),;3.130702972412109,;101.67134857177734,
5103,;Gurney Plaza,;33937-93418,;04-2268858,;Plaza Gurney Persiaran Gurney Unit 170-G-39,;Plaza Gurney Persiaran Gurney,;Penang,;7,;MY,;10250,;(5.43825578689575 100.309814453125),;5.438255786895752,;100.309814453125,
5104,;AEON Alpha Angle,;33934-91182,;03-41492842,;Jalan R1 Bandar Baru Wangsa Maju,;Jalan R1,;Kuala Lumpur,;14,;MY,;53300,;(3.20253491401672 101.733840942383),;3.202534914016724,;101.73384094238281,
5106,;Plaza Shah Alam,;33956-95094,;035510 1518,;No. 2 Jalan  Tengku Ampuan Zabedah E9/E Seksyen9Lot EL2Level 2Plaza Shah Alam,;No. 2 Jalan  Tengku Ampuan Zabedah E9/E,;Shah Alam,;10,;MY,;40100,;(3.08495092391968 101.522727966309),;3.084950923919678,;101.52272796630859,
5107,;The Curve,;33955-97816,;03-77315662,;Mutiara Damansara G88 Ground Floor,;Mutiara Damansara,;Petaling Jaya,;10,;MY,;47800,;(3.158047914505 101.610748291016),;3.158047914505005,;101.61074829101563,
5108,;Centrepoint BU,;30776-101271,;03-77313861,;Lebuh Bandar Utama Bandar Utama Lot G109 & G110 Ground Floor,;Lebuh Bandar Utama Bandar Utama,;Petaling Jaya,;10,;MY,;47800,;(3.1378390789032 101.610275268555),;3.137839078903198,;101.61027526855469,
5109,;Menara Maybank,;33936-91763,;03-20312858,;No. 100 Jalan Tun Perak Foyer Area 1st Floor,;No. 100 Jalan Tun Perak,;Kuala Lumpur,;14,;MY,;50050,;(3.14605593681335 101.697952270508),;3.146055936813354,;101.69795227050781,
5114,;AEON Kepong,;33944-94464,;03-62423828,;Jalan Kepong Lot G36,;Jalan Kepong,;Kuala Lumpur,;14,;MY,;52100,;(3.21429300308228 101.640327453613),;3.214293003082275,;101.64032745361328,
5115,;33945,;33945-94400,;03-21101183,;No 7 Jalan 1/77 Off Jalan Bukit Bintang G-28 Ground Floor,;No 7 Jalan 1/77 Off Jalan Bukit Bintang,;Kuala Lumpur,;14,;MY,;55100,;(3.14489006996155 101.709968566895),;3.144890069961548,;101.70996856689453,
5116,;Genting 3,;33946-94857,;03-61011858,;Genting Highlands Hotel Lot H/LG 6.00 Lower Ground Floor,;Genting Highlands Hotel,;Genting Highland,;7,;MY,;69000,;(3.42159008979797 101.79369354248),;3.421590089797974,;101.79369354248047,
5117,;IKANO Power Center,;33941-93902,;03-77106842,;No. 2 Jalan PJU 7/2 Mutiara Damasara Unit G22 Ground Floor,;No. 2 Jalan PJU 7/2 Mutiara Damasara,;Kuala Lumpur,;14,;MY,;47800,;(3.15855002403259 101.611503601074),;3.158550024032593,;101.61150360107422,
5118,;Bandar Utama 2,;33942-93901,;03-77322568,;Lebuh Bandar Utama Lot F352 1st Floor,;Lebuh Bandar Utama,;Petaling Jaya,;10,;MY,;47800,;(3.21374797821045 101.63990020752),;3.213747978210449,;101.63990020751953,
5119,;KLCC 2,;33940-93879,;03-21813037,;Kuala Lumpur City Centre Lot 327 & K33B 3rd Floor,;Kuala Lumpur City Centre,;Kuala Lumpur,;14,;MY,;50088,;(3.15779304504395 101.712440490723),;3.157793045043945,;101.71244049072266,
5120,;Berjaya Times Square 1,;33938-93481,;03-21100221,;Berjaya Times Square No.1 Jalan Imbi Lot No. G-09A Ground Floor,;Berjaya Times Square No.1 Jalan Imbi,;Kuala Lumpur,;14,;MY,;55100,;(3.1426420211792 101.710395812988),;3.142642021179199,;101.71039581298828,
5121,;Bukit Indah,;1915-139106,;07-2370408,;No. 8 Jalan Indah 15/2 Bukit Indah Lot G08 Ground Floor,;No. 8 Jalan Indah 15/2 Bukit Indah,;Johor Bahru,;1,;MY,;81200,;(1.48118197917938 103.655746459961),;1.481181979179382,;103.65574645996094,
5122,;The Zone,;1923-137105,;07-2241702,;88 Jalan Ibrahim Sutan Stulang Laut Level 1,;88 Jalan Ibrahim Sutan Stulang Laut,;Johor Bahru,;1,;MY,;80300,;(1.47228503227234 103.782897949219),;1.472285032272339,;103.78289794921875,
5123,;Subang Skypark,;1922-139704,;03-78469143,;Jalan Lapangan Terbang Lot G12 & G13 Terminal 3,;Jalan Lapangan Terbang,;Subang Jaya,;10,;MY,;47200,;(3.13536810874939 101.546768188477),;3.13536810874939,;101.54676818847656,
5124,;Tropicana Mall,;1916-136272,;03-77318667,;No. 3 Jalan SS20/27 Lot G-01 Ground Floor,;No. 3 Jalan SS20/27,;Petaling Jaya,;10,;MY,;47400,;(3.13095092773438 101.626770019531),;3.130950927734375,;101.62677001953125,
5128,;Aeon AU2,;1910-139105,;03-42661885,;No. 3 Jalan 37/56 Taman setiawangsa AU2 Bandar Baru Ampang Lot G48 AEON AU2,;No. 3 Jalan 37/56 Taman setiawangsa,;Kuala Lumpur,;14,;MY,;54200,;(3.17812895774841 101.750022888184),;3.178128957748413,;101.75002288818359,
5129,;Miri Airport,;1899-139886,;085-616450,;Lot No GL14 Public Concourse Ground Level,;Lot No GL14 Public Concourse,;Miri,;13,;MY,;98000,;(4.33121395111084 113.98511505127),;4.33121395111084,;113.98511505126953,
5131,;Uptown 2,;31557-108240,;03-77314665,;No.51G & 51A Jalan SS21/37,;No.51G & 51A Jalan SS21/37,;Petaling Jaya,;10,;MY,;47400,;(3.13366293907166 101.621505737305),;3.133662939071655,;101.62150573730469,
5133,;Bintang Plaza Miri,;32762-137815,;085-435650,;Jalan Bintang Lot G47 & G39A Ground Floor,;Jalan Bintang,;Miri,;13,;MY,;98000,;(4.39736986160278 113.993453979492),;4.397369861602783,;113.99345397949219,
5136,;Jusco Cheras Selatan,;31426-107047,;03-90816795,;Lebuh Tun Hussein Onn Lot G31,;Lebuh Tun Hussein Onn,;Balakong,;14,;MY,;43200,;(3.03344106674194 101.764999389648),;3.033441066741943,;101.76499938964844,
5137,;Bangsar Village 2,;31519-108182,;03-22015338,;No. 2 Jalan Telawi Satu Bangsar Baru Lot No. 2F-11 & K1 2nd Floor,;No. 2 Jalan Telawi Satu Bangsar Baru,;Kuala Lumpur,;14,;MY,;59100,;(3.13043808937073 101.67138671875),;3.130438089370728,;101.67138671875,
5138,;Dataran Pahlawan,;31462-107895,;06-2815630,;Jalan Merdeka Bandar Hilir Lot BN-017 BN-030 & BN-031,;Jalan Merdeka Bandar Hilir,;Melaka,;4,;MY,;75000,;(2.19051599502563 102.250366210938),;2.190515995025635,;102.2503662109375,
5140,;Queensbay Mall,;31408-107042,;04-6411645,;100 Persiaran Bayan Indah GF-36 Ground Floor,;100 Persiaran Bayan Indah,;Bayan Lepas,;7,;MY,;11900,;(5.33414506912231 100.306648254395),;5.334145069122314,;100.30664825439453,
5141,;Sunway Medical Center,;33957-97874,;03-56323876,;No 5 Jalan Lagoon Selatan Bandar Sunway Lobby Ground Floor,;No 5 Jalan Lagoon Selatan,;Petaling Jaya,;10,;MY,;46150,;(3.06563711166382 101.601692199707),;3.065637111663818,;101.60169219970703,
5142,;Juru Auto-City,;31274-105907,;04-5020362,;Highway Auto-City Prai Industrial Estate 1821-G1,;Highway Auto-City Prai Industrial Estate,;Perai,;7,;MY,;13600,;(5.33805799484253 100.428504943848),;5.338057994842529,;100.42850494384766,
5144,;Taipan,;33933-85140,;03-80113569,;No. 41 Jalan USJ 10/1D UEP Ground Floor,;No. 41 Jalan USJ 10/1D UEP,;Subang Jaya,;10,;MY,;47620,;(3.04976296424866 101.583633422852),;3.049762964248657,;101.58363342285156,
5146,;Genting Highlands,;33917-39460,;03-61013754,;First World Hotel Level T1 Lot F/L 1.4,;First World Hotel,;Genting Highland,;6,;MY,;69000,;(3.42419195175171 101.794654846191),;3.424191951751709,;101.79465484619141,
5147,;Prangin Mall,;33919-28667,;04-2611858,;Jalan Dr  Lim Chwee Leong No. 33-G-1A,;Jalan Dr  Lim Chwee Leong,;Komtar,;7,;MY,;10100,;(3.25493001937866 101.692596435547),;3.254930019378662,;101.69259643554688,
5149,;Plaza Berjaya,;33928-80641,;03-21102858,;No. 12 Jalan Imbi Kiosk 1 Ground Floor,;No. 12 Jalan Imbi,;Kuala Lumpur,;14,;MY,;55100,;(3.1434109210968 101.709434509277),;3.143410921096802,;101.70943450927734,
5154,;IOI Mall,;33913-22102,;03-80821370,;Batu 9 Bandar Puchong Jaya Lot G00 Front Entrance Ground Floor,;Batu 9 Bandar Puchong Jaya,;Puchong,;10,;MY,;47100,;(2.9964599609375 101.621116638184),;2.9964599609375,;101.62111663818359,
5155,;Great Eastern Mall,;33927-76364,;03-42576842,;No. 303 Jalan Ampang Lot 13 & 14 Ground Floor,;No. 303 Jalan Ampang,;Kuala Lumpur,;14,;MY,;50450,;(3.16032195091248 101.700698852539),;3.160321950912476,;101.70069885253906,
5160,;Plaza Mont' Kiara,;33908-13607,;03-62112169,;No. 2 Jalan 1/70C Mont' Kiara Lot Suite B OG-01-02,;No. 2 Jalan 1/70C Mont' Kiara,;Kuala Lumpur,;14,;MY,;50480,;(3.14398407936096 101.616737365723),;3.143984079360962,;101.61673736572266,
5162,;KL Sentral,;33924-75120,;03-22746842,;KL Sentral Arrival Hall Unit 5,;KL Sentral,;Kuala Lumpur,;14,;MY,;50470,;(3.13474893569946 101.686264038086),;3.134748935699463,;101.68626403808594,
5164,;Jusco Maluri,;33916-30520,;03-92026376,;Jalan Jejaka Lot G12 Ground Floor,;Jalan Jejaka,;Cheras,;14,;MY,;55100,;(3.12562894821167 101.728416442871),;3.12562894821167,;101.72841644287109,
5165,;Kota Raya,;33912-12650,;03-20220852,;Kota Raya Complex Jalan Tun Tan Cheng Lock Kiosk G1 Sidewalk Cafe,;Kota Raya Complex Jalan Tun Tan Cheng,;Kuala Lumpur,;14,;MY,;50450,;(3.14610910415649 101.698013305664),;3.146109104156494,;101.69801330566406,
5167,;Mid Valley Megamall,;33905-12648,;03-22011223,;Mid Valley City Lot G-100 Ground Floor,;Mid Valley City,;Kuala Lumpur,;14,;MY,;58000,;(3.11739492416382 101.677787780762),;3.117394924163818,;101.67778778076172,
5169,;The Weld,;33911-22084,;03-20220262,;No. 76 Jalan Raja Chulan Lot G1,;No. 76 Jalan Raja Chulan,;Kuala Lumpur,;14,;MY,;50200,;(3.15126895904541 101.706840515137),;3.15126895904541,;101.70684051513672,
5172,;Sunway Pyramid,;33906-16256,;03-56111967,;No. 3 Jalan PJS 11/15 Bandar Sunway Lot G1.12 & 1.13 Ground Floor,;No. 3 Jalan PJS 11/15 Bandar Sunway,;Petaling Jaya,;10,;MY,;46150,;(3.07316708564758 101.60897064209),;3.073167085647583,;101.60897064208984,
5174,;Johor Bahru City Square,;33904-13360,;07-2760267,;No 106 & 108 Jalan Wong Ah Fook Lot J1-06 Level 1,;No 106 & 108 Jalan Wong Ah Fook,;Johor Bahru,;1,;MY,;80000,;(1.46262395381927 103.763412475586),;1.462623953819275,;103.76341247558594,
5175,;Jaya 1,;32282-124325,;03-73917828,;Palm Square Jaya One Section 13 Unit E-81-G Block M Ground Floor,;Palm Square Jaya One Section 13,;Petaling Jaya,;10,;MY,;46300,;(3.11795091629028 101.635795593262),;3.117950916290283,;101.63579559326172,
5176,;3 Two Square,;32291-135364,;03-79607127,;No. 2 Jalan 19/1 C-17-01 Dataran 32,;No. 2 Jalan 19/1,;Petaling Jaya,;10,;MY,;46300,;(3.10609698295593 101.644081115723),;3.106096982955933,;101.64408111572266,
5177,;The Mines,;3059-136398,;03-89586858,;Jalan Dulang Mines Resort City L2-08(P) Level 2,;Jalan Dulang Mines Resort City,;Seri Kembangan,;10,;MY,;43300,;(3.02815198898315 101.718139648438),;3.028151988983154,;101.7181396484375,
5179,;Taiping Sentral,;32703-135924,;05-8054179,;No. 36 Jalan Istana Larut Lot G-09 & G-10,;No. 36 Jalan Istana Larut,;Taiping,;8,;MY,;34000,;(4.85697412490845 100.739440917969),;4.856974124908447,;100.73944091796875,
5180,;KKIA,;32698-135946,;088-413814,;Kota Kinabalu International Airport L3A01 Level 3 Airside Terminal 1,;Kota Kinabalu International Airport,;Kota Kinabalu,;12,;MY,;88740,;(5.93060302734375 116.049613952637),;5.93060302734375,;116.04961395263672,
5181,;SS2,;32596-136403,;03-78656828,;No. 3 SS2/67 Taman Sea Ground Floor,;No. 3 SS2/67 Taman Sea,;Petaling Jaya,;10,;MY,;47300,;(3.11881804466248 101.623153686523),;3.118818044662476,;101.62315368652344,
5183,;Menara Hap Seng,;32540-136426,;03-20222858,;Jalan P. Ramlee Suite G-09 Ground Floor,;Jalan P. Ramlee,;Kuala Lumpur,;14,;MY,;50250,;(3.15333604812622 101.707138061523),;3.153336048126221,;101.70713806152344,
5184,;Cameron Highlands,;32541-135925,;05-4915648,;Lot 22 & 23 Jalan Besar Tanah Rata,;Lot 22 & 23 Jalan Besar Tanah Rata,;Cameron Highlands,;6,;MY,;39007,;(4.47091293334961 101.377990722656),;4.470912933349609,;101.37799072265625,
5185,;One Borneo 1,;32542-132944,;088-447189,;Jalan Sulaman G-832 & F-832 - Ground & First Floor,;Jalan Sulaman,;Kota Kinabalu,;12,;MY,;88000,;(6.03582000732422 116.128814697266),;6.035820007324219,;116.12881469726563,
5188,;Berjaya Time Square,;33961-98564,;03-21100386,;No 1 Jalan Imbi Lot No. 01-01-28 1st Avenue 1st Floor,;No 1 Jalan Imbi,;Kuala Lumpur,;14,;MY,;55100,;(3.14244508743286 101.710327148438),;3.142445087432861,;101.7103271484375,
5189,;Cheras Leisure Mal,;33960-98399,;03-91336191,;Jalan Manis 6 Taman Segar Lot L2-25 Level 2,;Jalan Manis 6 Taman Segar,;Kuala Lumpur,;14,;MY,;56100,;(3.0909960269928 101.742408752441),;3.090996026992798,;101.74240875244141,
5190,;Plaza Damas,;33959-98940,;328569024,;Jalan Sri Hartamas 1 Sri Hartamas Lot P7-A Ground Floor,;Jalan Sri Hartamas 1 Sri Hartamas,;Kuala Lumpur,;14,;MY,;50480,;(3.16382002830505 101.656715393066),;3.163820028305054,;101.65671539306641,
5192,;Megamall Kuantan,;33949-95052,;09-5134489,;Jalan Tun Ismail Sri Dagangan G-15 Ground floor,;Jalan Tun Ismail Sri Dagangan,;Kuantan,;6,;MY,;25000,;(3.81438708305359 103.327293395996),;3.814387083053589,;103.32729339599609,
5193,;Giant Kelana Jaya,;33947-94257,;03-78806842,;No. 33 Jalan SS6/12 Kelana Jaya Lot G29 & G30,;No. 33 Jalan SS6/12 Kelana Jaya,;Petaling Jaya,;10,;MY,;47301,;(3.10464906692505 101.597717285156),;3.104649066925049,;101.59771728515625,
5194,;Kuala Lumpur,;33962-99772,;03-21812213,;Kuala Lumpur Convention Centre Lot C09 Concourse Floor,;Kuala Lumpur Convention Centre,;Kuala Lumpur,;14,;MY,;50088,;(3.15408992767334 101.713264465332),;3.15408992767334,;101.71326446533203,
5196,;E- Gate Penang,;30674-100081,;04-6597502,;Lebuh Tengku Kudin 2 Gelugor Lot 1-01-17,;Lebuh Tengku Kudin 2 Gelugor,;Penang,;7,;MY,;11700,;(5.37689590454102 100.315612792969),;5.376895904541016,;100.31561279296875,
5197,;Borders The Curve,;30792-101570,;03-77318665,;Jalan PJU 7/3 Mutiara Damansara Lot G16 Ground Floor The Walk,;Jalan PJU 7/3 Mutiara Damansara,;Petaling Jaya,;10,;MY,;47800,;(3.15724492073059 101.611770629883),;3.157244920730591,;101.61177062988281,
5198,;SS15. Subang Jaya,;30879-101157,;03-56115596,;No.79 Jalan SS15/8A Ground Floor,;No.79 Jalan SS15/8A,;Subang Jaya,;10,;MY,;47500,;(3.07439398765564 101.590545654297),;3.07439398765564,;101.59054565429688,
5199,;AEON Tebrau,;30897-102820,;07-3556049,;No.1 Jl Desa Tebrau Taman Desa Tebrau Lot G17,;No.1 Jl Desa Tebrau Taman Desa Tebrau,;Johor Bahru,;1,;MY,;81100,;(1.55001294612885 103.796783447266),;1.550012946128845,;103.79678344726563,
5200,;Langkawi International Airport,;31809-117007,;04-9557780,;Langkawi International Airport Lot No. C2 Public Concourse,;Langkawi International Airport,;Langkawi,;2,;MY,;7000,;(6.34239482879639 99.7316513061523),;6.342394828796387,;99.731651306152344,
5201,;Pearl Point,;31753-110087,;03-79722838,;Batu 5 Jalan Kelang Lama Lot No. 1.0.26 Ground Floor,;Batu 5 Jalan Kelang Lama,;Kuala Lumpur,;14,;MY,;58000,;(3.08540105819702 101.67350769043),;3.085401058197022,;101.67350769042969,
5203,;Precint 88,;3082-137817,;082-367913,;Precint 88 Jalan Song Unit G1 & F1 Ground & First Floor,;Precint 88 Jalan Song,;Kuching,;13,;MY,;93350,;(1.51919102668762 110.360176086426),;1.519191026687622,;110.36017608642578,
5204,;KLIA,;33954-145784,;03-87873509,;Lot 17(A)-(B) & 18 Satellite Building Mezzanine level,;Lot 17(A)-(B) & 18 Satellite Building,;Sepang,;10,;MY,;64000,;(2.74797201156616 101.713645935059),;2.747972011566162,;101.71364593505859,
5205,;Sunway Carnival,;31797-114990,;04-3982885,;3068 Jalan Todak Pusat bandar Seberang UG-27 Upper Ground Floor,;3068 Jalan Todak Pusat bandar Seberang,;Penang,;7,;MY,;13700,;(5.39904880523682 100.397735595703),;5.399048805236816,;100.39773559570313,
5206,;Metro Point Kajang,;31777-115328,;03-87368727,;Seksyen 7 Bandar Kajang Lot G19 & G30,;Seksyen 7 Bandar Kajang,;Ulu Langat,;10,;MY,;43000,;(2.99186706542969 101.794624328613),;2.991867065429688,;101.79462432861328,
5207,;Centrepoint KK,;31341-106381,;088-258180,;No. 1 Jalan Centre Point Lot No. P37 4th Floor,;No. 1 Jalan Centre Point,;Kota Kinabalu,;12,;MY,;88000,;(5.97291898727417 116.067680358887),;5.97291898727417,;116.06768035888672,
5208,;Warisan Square KK,;31342-106289,;088-447062,;Jalan Fuad Stephen Lot No. 8 Ground & 1st Floor Block C,;Jalan Fuad Stephen,;Kota Kinabalu,;12,;MY,;88000,;(5.97913599014282 116.070785522461),;5.979135990142822,;116.07078552246094,
5209,;City Mall KK,;31754-109644,;088-484275,;Jalan Lintas Luyang Lot No. 4 Ground Floor,;Jalan Lintas Luyang,;Kota Kinabalu,;12,;MY,;88300,;(5.96125888824463 116.097328186035),;5.961258888244629,;116.09732818603516,
5210,;Langkawi Jetty Point,;31076-104740,;04-9665309,;Jetty Kuah Lot 15 & 16 Zone 2,;Jetty Kuah,;Langkawi,;2,;MY,;7000,;(6.30652809143066 99.8518753051758),;6.306528091430664,;99.851875305175781,
5211,;Ipoh Parade,;31111-105258,;05-2412180,;105 Jalan Sultan Abdul Jalil Lot G25 Ground Floor,;105 Jalan Sultan Abdul Jalil,;Ipoh,;8,;MY,;30450,;(4.59767293930054 101.090103149414),;4.597672939300537,;101.09010314941406,
5212,;Centro Klang,;31637-110064,;03-33587305,;No. 8 Jalan Batu 3 Lot G135 Ground Floor,;No. 8 Jalan Batu 3,;Klang,;10,;MY,;41300,;(3.05315208435059 101.463020324707),;3.053152084350586,;101.46302032470703,
5213,;Kuching International Airport,;31798-111244,;082-625919,;Jalan Lapangan Terbang Lot L2L 08 & 09 Level 3 Public Concours,;Jalan Lapangan Terbang,;Kuching,;13,;MY,;93722,;(1.48767697811127 110.341842651367),;1.487676978111267,;110.34184265136719,
5215,;AEON Bukit Tinggi,;32114-114994,;033318 1264,;No1 Persiaran Batu Nilam 1/KS6 bandar Aeon Bukit Tinggi Shopping Centre,;No1 Persiaran Batu Nilam 1/KS6 bandar,;Klang,;10,;MY,;41200,;(2.99494695663452 101.444244384766),;2.994946956634522,;101.44424438476563,
5216,;Sunway Pyramid 2,;31982-114991,;03-56310613,;No. 1 Jalan PJS 11/15 Bandar Sunway Lot LG1.110 Lower Ground,;No. 1 Jalan PJS 11/15 Bandar Sunway,;Petaling Jaya,;10,;MY,;46150,;(3.06959295272827 101.601600646973),;3.069592952728272,;101.60160064697266,
5217,;The Gardens Mid Valley,;31981-114992,;032283 3744,;No. 1 Medan Syed Putra Utara Lot S-226B Second Floor,;No. 1 Medan Syed Putra Utara,;Kuala Lumpur,;14,;MY,;59200,;(3.11723494529724 101.677955627441),;3.117234945297241,;101.67795562744141,
5218,;Pavillion Kuala Lumpur,;31956-114989,;03-21100378,;168 Jalan Bukit Bintang Lot C 3.08.00 & C3.09.00 Level 3,;168 Jalan Bukit Bintang,;Kuala Lumpur,;14,;MY,;55100,;(3.14826107025146 101.71329498291),;3.148261070251465,;101.71329498291016,
5219,;Pavilion 2,;31955-124344,;03-21100258,;168 Jalan Bukit Bintang Lot No. 6.02.00 Level 6,;168 Jalan Bukit Bintang,;Kuala Lumpur,;14,;MY,;55100,;(3.1500289440155 101.712821960449),;3.150028944015503,;101.71282196044922,
5220,;Parkson Sungei Wang Plaza,;32169-129284,;03-21101858,;No. 769 Jalan Bukit Bintang C27 Concourse Level,;No. 769 Jalan Bukit Bintang,;Kuala Lumpur,;14,;MY,;55100,;(3.14873790740967 101.714942932129),;3.148737907409668,;101.71494293212891,
5221,;Lagenda Village Mall,;32071-123025,;04-4229645,;Jalan Lagenda 1 Lagenda Heights Lot G-9 G-15 G-16 Ground Floor,;Jalan Lagenda 1 Lagenda Heights,;Sungai Petani,;2,;MY,;8000,;(5.66013288497925 100.501655578613),;5.660132884979248,;100.50165557861328,
5222,;Kota Damansara,;32072-123084,;03-61513226,;Jalan PJU 5/11 Dataran Sunway No.1 Ground Floor,;Jalan PJU 5/11 Dataran Sunway,;Petaling Jaya,;10,;MY,;47810,;(3.15278291702271 101.593559265137),;3.152782917022705,;101.59355926513672,
5224,;Borders the Gardens,;32160-126464,;03-22013778,;The  Gardens Mid Valley Lot T-216-B 3rd Floor,;The  Gardens Mid Valley,;Kuala Lumpur,;14,;MY,;59200,;(3.11924004554749 101.676208496094),;3.119240045547485,;101.67620849609375,
5226,;Starbucks The Spring,;32256-108271,;082-247687,;Lot 7196 Section 64 Kuching Town Land Lot G10 First Floor,;Lot 7196 Section 64 Kuching Town Land,;Kuching,;13,;MY,;93350,;(1.53596794605255 110.357078552246),;1.535967946052551,;110.35707855224609,
5227,;New World Park,;32115-124324,;04-2274284,;No. 102 Jalan Burma Lot K-1 Ground Floor,;No. 102 Jalan Burma,;Penang,;7,;MY,;10050,;(5.41963195800781 100.32666015625),;5.419631958007812,;100.32666015625,
18928,;Empire Gallery Subang,;3086-139708,;03-56313302,;Jalan SS16/1 G28,;Jalan SS16/1,;Subang Jaya,;10,;MY,;47500,;(3.08093905448914 101.580986022949),;3.080939054489136,;101.58098602294922,
19060,;Setia Alam D/T,;3075-136445,;03-33414623,;Lot No.4 Persiaran Setia Impain Bandar Setia Alam Seksyen U 13,;Lot No.4 Persiaran Setia Impain,;Shah Alam,;10,;MY,;40170,;(3.13021492958069 101.504173278809),;3.130214929580688,;101.50417327880859,
19235,;Taylor's Lakeside,;3835-153473,;03-53126858,;No. 1 Jalan Taylor's Ground Floor Lot G.1,;No. 1 Jalan Taylor's,;Subang Jaya,;10,;MY,;47500,;(3.06962490081787 101.601608276367),;3.069624900817871,;101.60160827636719,
19445,;1st Avenue,;12683-155244,;04-2633202,;182 Jalan Magazine Lot G-09 & G-10 Ground Floor,;182 Jalan Magazine,;Penang,;7,;MY,;10300,;(5.4130277633667 100.331741333008),;5.413027763366699,;100.33174133300781,
19451,;Ampang Point,;15051-157221,;03-42653828,;Jalan Mamanda 3 Lot G20A Ground Floor,;Jalan Mamanda 3,;Ampang,;10,;MY,;68000,;(3.15794205665588 101.751434326172),;3.157942056655884,;101.75143432617188,
20003,;Straits Quay,;15049-157222,;04-8901076,;Jalan Seri Tanjung Pinang Lot 3A-G-15 Unit No 3A-G-15 Block A Ground Floor,;Jalan Seri Tanjung Pinang Lot 3A-G-15,;Penang,;7,;MY,;10470,;(5.45949697494507 100.305793762207),;5.459496974945068,;100.30579376220703,
20382,;Desa Sri Hartamas,;15422-161324,;03-62115009,;No. 22 Jalan 25/70A Desa Sri Hartamas Ground Floor,;No. 22 Jalan 25/70A Desa Sri Hartamas,;Kuala Lumpur,;14,;MY,;59400,;(3.16236996650696 101.650382995605),;3.162369966506958,;101.65038299560547,
51994,;VIVA Home,;14975-156707,;03-92027808,;No. 85 Jalan Loke Yew LG-28A Lower Ground Floor,;No. 85 Jalan Loke Yew,;Kuala Lumpur,;14,;MY,;55200,;(3.12958693504334 101.711791992188),;3.129586935043335,;101.7117919921875,
66371,;Subang Parade,;15874-166185,;03-56121566,;No. 5 Jalan SS16/1 Lot G15J Ground Floor,;No. 5 Jalan SS16/1,;Subang Jaya,;10,;MY,;47500,;(3.08234906196594 101.585670471191),;3.082349061965942,;101.58567047119141,
66435,;JB Sentral,;15577-163164,;07-2212453,;Jalan Jim Quee Lot No. 1&2 3rd Floor JB Sentral,;Jalan Jim Quee,;Johor Bahru,;1,;MY,;80300,;(1.4641820192337 103.764183044434),;1.464182019233704,;103.76418304443359,
68402,;Gleneagles,;9168-152125,;03-42665689,;No. 286 Jalan Ampang Ground Floor (Garden Area),;No. 286 Jalan Ampang,;Kuala Lumpur,;14,;MY,;50450,;(3.16111397743225 101.72599029541),;3.161113977432251,;101.72599029541016,
68899,;1 Borneo -2F Enter Zone,;32543-169666,;088-447329,;Jalan Sulaman No. G-301 Ground Floor,;Jalan Sulaman,;Kota Kinabalu,;12,;MY,;88000,;(6.03514814376831 116.12850189209),;6.03514814376831,;116.12850189208984,
69037,;Johor Premium Outlets,;16340-164364,;07-5909143,;Jalan Premium Outlets Indahputra Lot 500,;Jalan Premium Outlets Indahputra,;Kulaijaya,;1,;MY,;81000,;(1.46286904811859 103.75456237793),;1.462869048118591,;103.75456237792969,
69699,;Jusco Bandaraya Melaka,;16226-169665,;06-2818769,;No. 2 Jalan Lagenda Taman 1-Lagenda Lot G89 & G90,;No. 2 Jalan Lagenda Taman 1-Lagenda,;Melaka,;4,;MY,;75400,;(2.21270704269409 102.247917175293),;2.212707042694092,;102.24791717529297,
69877,;Bandar Utama,;17238-162265,;03-77327846,;Lebuh Bandar Utama Bandar Utama Lot G139A Ground Floor,;Lebuh Bandar Utama Bandar Utama,;Petaling Jaya,;10,;MY,;47800,;(3.14967894554138 101.615875244141),;3.149678945541382,;101.61587524414063,
86968,;Jusco Rawang,;16719-174805,;03-60910927,;No. 1 Persiaran Anggun Taman Anggun Lot G62 Ground Floor,;No. 1 Persiaran Anggun Taman Anggun,;Rawang,;10,;MY,;48000,;(3.33535504341125 101.583831787109),;3.335355043411255,;101.58383178710938,
87030,;TTDI,;16850-176227,;03-77334557,;No. 20-G Jalan Tun Mohd Fuad 1 A & B Taman Tun Dr Ismail,;No. 20-G Jalan Tun Mohd Fuad 1,;Kuala Lumpur,;14,;MY,;60000,;(3.14176988601685 101.62915802002),;3.141769886016846,;101.62915802001953,
88873,;Jusco Ipoh Station 18,;16720-174806,;05-3217843,;No. 2 Susuran Stesen 18 Station 18 Lot G66 Ground Floor,;No. 2 Susuran Stesen 18 Station 18,;Ipoh,;8,;MY,;31650,;(4.59742879867554 101.090324401855),;4.597428798675537,;101.09032440185547,
88881,;Setia City Mall,;17171-156708,;03-33456195,;No.7 Persiaran Setia Dagang Seksyen U1 Lot LG-33,;No.7 Persiaran Setia Dagang Seksyen U1,;Shah Alam,;10,;MY,;40170,;(3.10871005058289 101.461128234863),;3.108710050582886,;101.46112823486328,
88955,;Paradigm Mall,;16970-162284,;03-78867598,;No. 1 Jalan SS7/26A Kelana Jaya Lot No. GB 01A & GB 16 Ground Floor,;No. 1 Jalan SS7/26A Kelana Jaya,;Petaling Jaya,;10,;MY,;47301,;(3.10516905784607 101.595962524414),;3.105169057846069,;101.59596252441406,
89387,;Wisma HB,;17252-180646,;03-21813063,;Megan Avenue II 12 Jalan Yap Kwan Seng A-0-1 Ground Floor Block A,;Megan Avenue II 12 Jalan Yap Kwan Seng,;Kuala Lumpur,;14,;MY,;50450,;(3.16222095489502 101.71329498291),;3.16222095489502,;101.71329498291016,
89631,;Prima 5 D/T,;17454-177446,;03-83189395,;Block  3505 Jalan Teknokrat 5 Prima 5C,;Block  3505 Jalan Teknokrat 5,;Cyberjaya,;10,;MY,;63000,;(2.921541929245 101.655586242676),;2.921541929244995,;101.65558624267578,
89874,;Cenang Mall,;17250-180648,;04-9551540,;Lot 2605 Jalan Pantai Cenang Mukim Keda Lot GF1a GF1b & GF1c CenangMallLangkawi,;Lot 2605 Jalan Pantai Cenang Mukim Keda,;Langkawi,;2,;MY,;7000,;(6.29495000839233 99.7251739501953),;6.294950008392334,;99.725173950195312,
90307,;Suria Sabah,;18213-188744,;088-486260,;Suria Sabah Shopping Mall G-2 & G-69 Ground Floor,;Suria Sabah Shopping Mall,;Kota Kinabalu,;12,;MY,;88000,;(5.98738193511963 116.077033996582),;5.987381935119629,;116.07703399658203,
91308,;Shaftsbury,;17444-158465,;03-83223973,;Cyber 6 Persiaran Multimedia Lot 2350,;Cyber 6 Persiaran Multimedia,;Cyberjaya,;10,;MY,;63000,;(2.89846992492676 101.648849487305),;2.898469924926758,;101.64884948730469,
91766,;Menara Olympia,;18504-191664,;03-20221185,;No. 8 Jalan Raja Chulan Level 1,;No. 8 Jalan Raja Chulan,;Kuala Lumpur,;14,;MY,;50200,;(3.14945006370544 101.700622558594),;3.149450063705444,;101.70062255859375,
94734,;Petronas PLUS D/T,;18241-173545,;03-89382297,;KM305Plus Arah Selatan Mukim Kajang Stesen Minyak Petronas,;KM305Plus Arah Selatan Mukim Kajang,;Selangor,;10,;MY,;43300,;(3.00592994689941 101.725433349609),;3.005929946899414,;101.72543334960938,
94911,;Borders Queensbay Mall,;31428-196124,;04-6411148,;100 Persiaran Bayan Indah Lot 1F-91 & 92 QueensBay Mall,;100 Persiaran Bayan Indah,;Bayan Lepas,;7,;MY,;11900,;(5.33668088912964 100.306686401367),;5.336680889129639,;100.30668640136719,
94953,;Plaza Merdeka,;17883-176424,;082-239785,;Plaza Merdeka88 Jalan Pearl Lot G-46 Ground Floor,;Plaza Merdeka88 Jalan Pearl,;Kuching,;13,;MY,;93000,;(1.55894494056702 110.344078063965),;1.558944940567017,;110.34407806396484,
113407,;AEON Seri Manjung,;18283-189684,;05-6870143,;Pusat Perniagaan Manjung Point 3 Lot G65,;Pusat Perniagaan Manjung Point 3,;Seri Manjung,;8,;MY,;32040,;(4.22076892852783 100.671867370605),;4.220768928527832,;100.67186737060547,
113539,;Tanjong Tokong D/T,;17884-184365,;04-8906008,;4-G Jalan Pantai Molek Tanjung Tokong,;4-G Jalan Pantai Molek,;Penang,;6,;MY,;10470,;(5.45452785491943 100.306617736816),;5.454527854919434,;100.30661773681641,
113557,;Bukit Bintang,;18713-194405,;03-21410199,;Jalan Bukit Bintang Ground Floor,;Jalan Bukit Bintang,;Kuala Lumpur,;14,;MY,;55100,;(3.14606809616089 101.710830688477),;3.146068096160889,;101.71083068847656,
113558,;Scott Garden,;18780-195207,;03-79800142,;Jalan Klang Lama S-G-09,;Jalan Klang Lama,;Kuala Lumpur,;14,;MY,;58000,;(3.09540700912476 101.67504119873),;3.095407009124756,;101.67504119873047,
113996,;Melaka Raya,;15524-193325,;06-2814628,;No. 161 Jalan Merdeka Taman Melaka Raya,;No. 161 Jalan Merdeka,;Melaka,;4,;MY,;75000,;(2.18610095977783 102.260482788086),;2.186100959777832,;102.26048278808594,
113999,;Penang International Airport,;18368-190504,;04-6446818,;Domestic Airside Penang International Airport Lot L2A FB08. Bayan Lepas,;Domestic Airside Penang International,;Penang,;7,;MY,;11900,;(5.29419612884521 100.265632629395),;5.294196128845215,;100.26563262939453,
1006331,;Puteri Harbour,;19396-201906,;,;Persiaran Puteri Selatan Puteri Harbour Lot 1D Ground Floor,;Persiaran Puteri Selatan Puteri Harbour,;Nusajaya,;1,;MY,;79000,;(1.4168289899826 103.658401489258),;1.416828989982605,;103.65840148925781,
1005246,;Setia Walk,;2121-135927,;03-58853110,;Persiaran Wawasan Pusat Bandar Puchong G-01G,;Persiaran Wawasan Pusat Bandar Puchong,;Puchong,;10,;MY,;47160,;(3.0366199016571 101.625587463379),;3.036619901657104,;101.62558746337891,
1005448,;Summer Mall,;18641-193904,;,;Jalan Dato Mohd Musa G25G25G27G98&G9 G25G25G27G98&G99,;Jalan Dato Mohd Musa G25G25G27G98&G9,;Kota Samarahan,;13,;MY,;93350,;(1.46085202693939 110.431297302246),;1.460852026939392,;110.43129730224609,
1005468,;Gurney Paragon,;20851-208705,;,;G-30 Gurney Paragon Persiaran Gurney,;G-30 Gurney Paragon,;Penang,;7,;MY,;10250,;(5.43444108963013 100.308639526367),;5.434441089630127,;100.30863952636719,
1005472,;SOHO KL,;21220-210284,;,;Solaris Mont Kiara No.2 Jalan Solaris Mont Kiara,;Solaris Mont Kiara,;Kuala Lumpur,;14,;MY,;50480,;(3.17519211769104 101.660278320313),;3.17519211769104,;101.6602783203125,
1005752,;Petronas Lingkaran Karak,;20856-208706,;,;Lebuhraya KL-KarakMukim Setapak Gombak,;Lebuhraya KL-KarakMukim Setapak Gombak,;Selangor,;10,;MY,;68100,;(1.46423804759979 103.761840820313),;1.464238047599792,;103.7618408203125,
1005951,;Port Dickson,;19790-202844,;,;PD Waterfront HS(D) 8376 PT 74 Port of HS(D) 9376 PT 74,;PD Waterfront HS(D) 8376 PT 74,;Port Dickson,;5,;MY,;71000,;(2.52246904373169 101.791603088379),;2.52246904373169,;101.79160308837891,
1005976,;Taman Connaught,;21707-214566,;,;2 Jalan Menara Gading 1 Ground Floor Taman Connaught,;2 Jalan Menara Gading 1,;Kuala Lumpur,;14,;MY,;56000,;(3.08086490631104 101.733573913574),;3.080864906311035,;101.73357391357422,
1005995,;Avenue K,;20431-205551,;,;156 Jalan Ampang G-7 Ground Floor,;156 Jalan Ampang,;Kuala Lumpur,;14,;MY,;50450,;(3.15931797027588 101.713706970215),;3.159317970275879,;101.71370697021484,
1006367,;Petronas Rawang R&R,;22142-218089,;,;Rawat Rawang Lebuhraya Utara Selatan (Arah Utara),;Rawat Rawang Lebuhraya Utara Selatan,;Rawang,;10,;MY,;48000,;(3.33021402359009 101.558082580566),;3.330214023590088,;101.55808258056641,
1006349,;AEON Kulaijaya,;20876-208707,;,;Persiaran Indahpura Utama Bdr Indahpura G68 Ground Floor,;Persiaran Indahpura Utama Bdr Indahpura,;Johor Bharu,;1,;MY,;81000,;(1.63971900939941 103.617454528809),;1.639719009399414,;103.61745452880859,
1006365,;Menara Axis,;22140-218092,;,;No.2 Jln 51A/223 Ground Floor,;No.2 Jln 51A/223,;Petaling Jaya,;10,;MY,;46100,;(3.10364198684692 101.638961791992),;3.103641986846924,;101.63896179199219,
1006366,;Wisma UOA,;22141-218086,;,;No.19 Jalan Pinang 19-1-2 Ground Floor,;No.19 Jalan Pinang,;Kuala Lumpur,;14,;MY,;50450,;(3.1527578830719 101.711929321289),;3.152757883071899,;101.71192932128906,
1006368,;Petronas Ampang Jaya,;22143-218093,;,;Tmn Dato Ahmad Razali Phase 1 Grd Floor,;Tmn Dato Ahmad Razali,;Ampang,;10,;MY,;68000,;(3.16092610359192 101.75496673584),;3.160926103591919,;101.75496673583984,
1006395,;Cheras Sentral,;18461-186352,;,;Lot LG-16 17 & 18 Low Ground Floor Cheras Sentral,;Lot LG-16 17 & 18 Low Ground Floor,;Kuala Lumpur,;14,;MY,;56000,;(3.07833409309387 101.745094299316),;3.078334093093872,;101.74509429931641,
1006459,;Sunway Tambun DT,;20065-147988,;,;Part of Lost HS(D) KA 72917 Mukim Hulu Kinta Daerah Kinta,;Part of Lost HS(D) KA 72917 Mukim Hulu,;Ipoh,;8,;MY,;31150,;(4.62614011764526 101.154792785645),;4.626140117645264,;101.15479278564453,
1006503,;Kluang Mall,;22145-218090,;,;Jln Rambutan G-10 Ground Floor,;Jln Rambutan,;Bandar Kluang Kluang,;1,;MY,;86000,;(2.04017210006714 103.320083618164),;2.040172100067139,;103.32008361816406,
1006572,;Club Nexu5,;19120-178904,;,;Club Nexu5 Bangsar South Lot F&B 01 Ground Floor,;Club Nexu5 Bangsar South,;Kuala Lumpur,;14,;MY,;59200,;(3.12728810310364 101.678123474121),;3.127288103103638,;101.67812347412109,
1006583,;Imperial City Mall,;19720-201166,;,;Jalan Merpati Ground Floor,;Jalan Merpati,;Miri,;13,;MY,;98000,;(4.39970588684082 113.992004394531),;4.39970588684082,;113.99200439453125,
1006718,;Petronas Bayu Senibong,;22152-218094,;,;Taman Bayu Senibong Mukim Plentong PTD 148135,;Taman Bayu Senibong Mukim Plentong,;Bayu Senibong,;1,;MY,;81750,;(1.49441802501678 103.800193786621),;1.494418025016785,;103.80019378662109,
1006607,;KOTA KEMUNING,;16621-173245,;035110 0642,;Jalan Anggerik Vanila Kota Kemuning Seksyen 31 part of lot PT128300,;Jalan Anggerik Vanila Kota Kemuning,;Shad Alam,;10,;MY,;40460,;(2.9907329082489 101.547996520996),;2.990732908248901,;101.54799652099609,
1006868,;Petron Genting Permai,;22609-222727,;,;Jalan Permai 2 Genting Permai Avenue Lot 21078,;Jalan Permai 2 Genting Permai Avenue,;Genting Highlands,;6,;MY,;69000,;(3.38845300674438 101.774101257324),;3.388453006744385,;101.77410125732422,
1007348,;Starbucks Teluk Cempedak,;22610-222730,;,;Jalan Tengku Abu Bakar No 1&2 Pusat Rekreasi Teluk Cempedak,;Jalan Tengku Abu Bakar,;Kuantan,;6,;MY,;25050,;(3.81238698959351 103.371757507324),;3.812386989593506,;103.37175750732422,
1007997,;NU Sentral,;18456-156705,;,;No.201 Jalan Tun Sambathan Lot 14&15 Concourse Floor,;No.201 Jalan Tun Sambathan,;Kuala Lumpur,;14,;MY,;,;(3.13318395614624 101.686584472656),;3.13318395614624,;101.68658447265625,
1008315,;Teknology Park Malaysia DT,;21868-213704,;,;Jalan Teknologi Malaysia Wisma Scope International PT15084,;Jalan Teknologi Malaysia,;Kuala Lumpur,;14,;MY,;57000,;(3.04673790931702 101.688514709473),;3.046737909317017,;101.68851470947266,
1008086,;Main Place,;19754-195208,;,;Jalan USJ 21/10 Persiaran Kewajipan Lot No. GF-01,;Jalan USJ 21/10 Persiaran Kewajipan,;Subang Jaya,;10,;MY,;47630,;(3.02677607536316 101.58162689209),;3.026776075363159,;101.58162689208984,
1006954,;Encorp Strand,;22532-221926,;,;No 1. Kalan PJU 5/23 Pusat Perdagangan Log G-08 &G-09 Ground floor,;No 1. Kalan PJU 5/23 Pusat Perdagangan,;Petaling Jaya,;10,;MY,;47810,;(3.15583109855652 101.593551635742),;3.155831098556519,;101.59355163574219,
1008046,;Gateway at KLIA2,;19337-195305,;,;Unit No. L3-25 Level 3 Gateway @ KLIA2,;Unit No. L3-25 Level 3 Gateway @ KLIA2,;Sepang,;10,;MY,;64000,;(2.74398303031921 101.685501098633),;2.743983030319214,;101.68550109863281,
1008050,;KLIA2 - Airside Domestic,;19406-198925,;,;S1-1a-A02 Domestic Departure & Arrival Level (Airside) KLIA2,;S1-1a-A02 Domestic Departure & Arrival,;Sepang,;10,;MY,;64000,;(2.74243402481079 101.687232971191),;2.742434024810791,;101.68723297119141,
1008228,;Medan Gopeng,;21353-212064,;,;Jalan Raja Dr. Nazrin Shah Jalan Gopeng Kampung Rapat,;Jalan Raja Dr. Nazrin Shah Jalan Gopeng,;Ipoh,;8,;MY,;31350,;(4.57346677780151 101.111068725586),;4.573466777801514,;101.11106872558594,
1010042,;AEON - Bukit Mertajam,;24509-238149,;,;Lot G08 & G08A,;Lot G08 & G08A,;Bukit Mertajam,;7,;MY,;14000,;(5.37120914459229 100.440574645996),;5.371209144592285,;100.44057464599609,
1008509,;Sri Pinang DT,;22745-224006,;,;Lebuh Sungai Pinang L1-1 L1-2 L1-3 L2-1,;Lebuh Sungai Pinang,;Georgetown,;7,;MY,;11600,;(5.3969578742981 100.328636169434),;5.396957874298096,;100.32863616943359,
1008575,;Burmah Road,;23030-227024,;,;Jalan Burmah 403-A,;Jalan Burmah,;Georgetown,;7,;MY,;10350,;(5.42697477340698 100.31591796875),;5.426974773406982,;100.31591796875,
1009763,;Kepong Village Mall,;23233-228626,;,;No.3 Jln 7A/62A Bdr Menjalara Lot G1 & G2 Ground Floor,;No.3 Jln 7A/62A Bdr Menjalara,;Kuala Lumpur,;14,;MY,;52200,;(3.19316005706787 101.633743286133),;3.193160057067871,;101.63374328613281,
1010424,;Bandar Puteri Puchong,;24238-236224,;,;Lot TC-05 IOI Galleria @ The Cube No. G-2 Jalan Puteri 7/13A Bandar Puteri,;Lot TC-05 IOI Galleria @ The Cube,;Puchong,;10,;MY,;47100,;(3.02594494819641 101.615104675293),;3.025944948196411,;101.61510467529297,
1008317,;Quill City Mall,;21871-206347,;,;Jalan Sultan Ismail,;Jalan Sultan Ismail,;Kuala Lumpur,;14,;MY,;50250,;(3.15968489646912 101.700325012207),;3.159684896469116,;101.70032501220703,
1011233,;MBC Tower,;25155-237965,;,;11 Jalan Raja Laut Ground Floor,;11 Jalan Raja Laut,;KL,;14,;MY,;50100,;(3.15536594390869 101.694664001465),;3.155365943908691,;101.69466400146484,
1008435,;The Shore,;22462-221127,;,;Jalan Persiaran Bunga Raya GF-10,;Jalan Persiaran Bunga Raya,;Melaka Tengah,;4,;MY,;75300,;(2.20291900634766 102.249946594238),;2.202919006347656,;102.24994659423828,
1008475,;AEON Taiping,;22627-222729,;,;Lot G08 Ground Floor AEON Mall Taiping Jalan Kamunting,;Lot G08 Ground Floor AEON Mall Taiping,;Taiping,;8,;MY,;34600,;(4.87308883666992 100.728187561035),;4.873088836669922,;100.72818756103516,
1010430,;IOI City,;24880-197644,;,;Unit No. GE-2 Ground Floor IOI City Mall,;Unit No. GE-2 Ground Floor,;Putrajaya,;16,;MY,;62502,;(2.9697630405426 101.714004516602),;2.969763040542602,;101.71400451660156,
1011021,;Menara Binjai,;24275-236921,;,;No.2 Jalan Binjai G-02,;No.2 Jalan Binjai,;Kuala Lumpur,;14,;MY,;50450,;(3.1597011089325 101.718727111816),;3.159701108932495,;101.71872711181641,
1011236,;Taman Molek,;25161-238184,;,;Jalan Molek 3/20 Taman Molek 21-G & 21-1,;Jalan Molek 3/20 Taman Molek,;Taman Molek,;1,;MY,;81100,;(1.52734196186066 103.793296813965),;1.527341961860657,;103.79329681396484,
1011377,;Wisma UOA Damansara,;33907-237935,;03-20110959,;Blok C-C1-C2 Level 1 Jalan Beringin Pusat Bandar Damansara,;Blok C-C1-C2 Level 1 Jalan Beringin,;Kuala Lumpur,;14,;MY,;50490,;(3.11058211326599 101.682273864746),;3.110582113265991,;101.68227386474609,
1011379,;LCCT,;6013-242485,;03-87871066,;KL International Airport Lot LCPC 18 Public Concourse,;KL International Airport,;Sepang,;10,;MY,;64000,;(2.74377393722534 101.685668945313),;2.743773937225342,;101.6856689453125,
1011307,;Danga Bay,;25311-240185,;,;Sales Gallery Lot PTB 22056 Danga Bay Jalan Skudai,;Sales Gallery Lot PTB 22056 Danga Bay,;Johor Bahru,;1,;MY,;80200,;(1.48795700073242 103.710731506348),;1.487957000732422,;103.71073150634766,
1009549,;Kampar Tin Village,;23238-228624,;,;Lot No. 5 & 6 Ground Floor Tin Village Mall,;Lot No. 5 & 6 Ground Floor,;Kampar,;8,;MY,;31900,;(4.32680606842041 101.146766662598),;4.32680606842041,;101.14676666259766,
1010205,;Sunway Pinnacle,;24625-238385,;032035 5869,;Mezzanine Floor The Pinnacle Persiaran Bandar Sunway,;Mezzanine Floor The Pinnacle Persiaran,;Petaling Jaya,;10,;MY,;46150,;(3.07001805305481 101.61011505127),;3.07001805305481,;101.61011505126953,
1011278,;One City,;25148-239966,;,;Jalan USJ 25/1 No A-GF-03 A-GF-03A & A-GF-03B,;Jalan USJ 25/1,;Subang Jaya,;10,;MY,;47650,;(3.02082490921021 101.580543518066),;3.020824909210205,;101.58054351806641,
1011250,;Mid Valley 2,;25308-240184,;,;T-073 Third Floor Mid Valley Megamall Lingkaran Syed Putra,;T-073 Third Floor Mid Valley Megamall,;Kuala Lumpur,;14,;MY,;59200,;(1.46707403659821 103.727485656738),;1.467074036598206,;103.72748565673828,
1008218,;Tesco Tebrau,;21233-210285,;,;No.1 Persiaran Desa Tebrau Lot No.G7 & G8 Ground Floor,;No.1 Persiaran Desa Tebrau,;Johor Bahru,;1,;MY,;81100,;(1.55039703845978 103.796966552734),;1.550397038459778,;103.79696655273438,
1008180,;Oceanus Waterfront,;20800-207344,;,;Jalan Fuad Stephen Unit G35 Ground Floor,;Jalan Fuad Stephen,;Kota Kinabalu,;12,;MY,;88000,;(5.97709178924561 116.068672180176),;5.977091789245606,;116.06867218017578,
1008373,;Damansara Perdana,;22157-218091,;,;Jalan PJU 8/8 A=LG-03,;Jalan PJU 8/8,;Petaling Jaya,;10,;MY,;47820,;(3.16587209701538 101.612007141113),;3.165872097015381,;101.61200714111328,
1008269,;SDMC,;21579-208704,;,;Sime Darby Medical Centre No. 1 Jalan SS 12/1a SS12 Subang Jaya,;Sime Darby Medical Centre No. 1,;Selangor,;10,;MY,;47500,;(3.0782790184021 101.593635559082),;3.0782790184021,;101.59363555908203,
1011218,;Shell Bandar Seri Alam,;24971-239310,;,;Lot S1 Ground Floor PTD 220529 Persiaran Seri Alam Bandar Seri Alam,;Lot S1 Ground Floor PTD 220529,;MUKIM PLENTONG,;1,;MY,;81750,;(1.51065301895142 103.877586364746),;1.510653018951416,;103.87758636474609,
1009379,;Imago KK Times Square,;23673-216288,;,;G33B & G33C Ground Floor Imago KK Times Square,;G33B & G33C Ground Floor,;Kota Kinabalu,;12,;MY,;88100,;(5.97010612487793 116.06600189209),;5.97010612487793,;116.06600189208984,
1011268,;Capital Squar,;32113-216304,;03-22027958,;No. 8 Jalan Munshi Abdullah Lot G-2 Ground Floor,;No. 8 Jalan Munshi Abdullah,;Kuala Lumpur,;14,;MY,;50100,;(3.15456509590149 101.699851989746),;3.154565095901489,;101.69985198974609,
1011271,;Jaya Shopping Centre,;33903-213724,;,;Lot G15 & G-16 Ground Floor Lot G 15A & G-16 Ground Floor,;Lot G15 & G-16 Ground Floor,;Petaling Jaya,;10,;MY,;46100,;(3.10956501960754 101.637115478516),;3.109565019607544,;101.63711547851563,
1011272,;The Mall,;33921-212504,;03-40502738,;No. 100 Jalan Putra No. G40,;No. 100 Jalan Putra,;Kuala Lumpur,;14,;MY,;50350,;(3.16626811027527 101.692291259766),;3.166268110275269,;101.69229125976563,
1011682,;Icon City DT,;25802-242470,;,;Bukit Tengah,;Bukit Tengah,;Bukit Mertajam,;7,;MY,;14000,;(5.343581199646 100.433715820313),;5.343581199645996,;100.4337158203125,
1011824,;Citta Mall,;26044-243286,;,;G15 Ground Floor Citta Mall 1 Jln PJU 1A/48 Jln PJU 1 Ara Dsara,;G15 Ground Floor Citta Mall,;Selangor,;10,;MY,;47301,;(3.1120970249176 101.578720092773),;3.112097024917602,;101.57872009277344,
1012034,;KLCC 1 (Closed),;33929-242473,;0,;Kuala Lumpur City Centre Lot G45A Ground Floor,;Kuala Lumpur City Centre,;Kuala Lumpur,;14,;MY,;,;(3.15759992599487 101.716522216797),;3.157599925994873,;101.71652221679688,
1010421,;Atria,;23249-228625,;,;G39 Ground Floor Atria Shopping Gallery Jalan 22/23 Damansara Jaya,;G39 Ground Floor Atria Shopping Gallery,;Petaling Jaya,;10,;MY,;47400,;(3.12716698646545 101.616584777832),;3.127166986465454,;101.61658477783203,
1009762,;Batu Ferringhi,;23201-228504,;,;69 Jalan Batu Ferringhi,;69 Jalan Batu Ferringhi,;Penang,;7,;MY,;11000,;(5.47379493713379 100.246719360352),;5.473794937133789,;100.24671936035156,
1012018,;Komtar JBCC,;26648-244844,;,;Lot No.239 Second Floor JBCC Johor Bahru City Centre,;Lot No.239 Second Floor JBCC,;Johor Bahru,;16,;MY,;80000,;(1.46294903755188 103.763404846191),;1.46294903755188,;103.76340484619141,
1011269,;East Coast Mall (Closed),;32480-225566,;09-5609209,;East Coast Mall No. GF-06 Alfresco Ground Floor,;East Coast Mall,;Kuantan,;6,;MY,;25200,;(3.818932056427 103.326385498047),;3.818932056427002,;103.32638549804688,
1008217,;KLIA Contact Pier,;21229-210286,;012644 8660,;Contact Pier KL International Airport Sepang,;Contact Pier KL International Airport,;Selangor,;10,;MY,;64000,;(2.75160002708435 101.705787658691),;2.751600027084351,;101.70578765869141,
1008281,;Bintulu Times Square Mall,;21630-213708,;,;Lot No. 20B Level 1 Time Square Megamall,;Lot No. 20B Level 1,;Bintulu,;13,;MY,;97014,;(4.40553998947144 102.233177185059),;4.405539989471436,;102.23317718505859,
1013116,;Tesco Jenjarom,;28343-250636,;,;G6 Grd Flr Tesco Jenjarom 1 Jln 1/1 Tmn Seri Jaromas Jenjarom,;G6 Grd Flr Tesco Jenjarom,;Selangor,;10,;MY,;,;(3.1177499294281 101.422592163086),;3.117749929428101,;101.42259216308594,
1013219,;Aman Central,;25680-212065,;04731 3770,;Lot G35 & G80 Aman Central Mall Alor Setar Town Kedah Darul Aman,;Lot G35 & G80 Aman Central Mall,;Alor Setar,;2,;MY,;,;(6.12573003768921 100.366271972656),;6.125730037689209,;100.36627197265625,
1008022,;Lot 10,;18947-196928,;,;50 Jalan Sultan Ismail Lot H-20 Terrace Lot 10 Shopping Centre,;50 Jalan Sultan Ismail,;Kuala Lumpur,;14,;MY,;50250,;(3.14619493484497 101.71174621582),;3.146194934844971,;101.71174621582031,
1013583,;Ansa,;29500-253992,;321130015,;Lot G.03 Ground Floor 101 Jalan Bukit Bintang,;Lot G.03 Ground Floor,;Kuala Lumpur,;14,;MY,;,;(3.14776992797852 101.694030761719),;3.147769927978516,;101.69403076171875,
1013409,;AEON Klebang,;27915-249188,;05291 4366,;Lot G.05 Ground Floor Aeon Mall Ipoh Klebang,;Lot G.05 Ground Floor,;Ipoh,;8,;MY,;30010,;(4.64332008361816 101.095001220703),;4.643320083618164,;101.09500122070313,
1011819,;Pantai Medical Centre (Closed),;31233-244104,;03-22015008,;8 Jalan Bukit Pantai Part of Ground Floor,;8 Jalan Bukit Pantai,;Kuala Lumpur,;14,;MY,;59100,;(3.12044596672058 101.666168212891),;3.120445966720581,;101.66616821289063,
1012649,;Mansion One,;33910-247010,;,;Ground Floor Mansion 1 Jalan Sultan Ahmad Shah,;Ground Floor Mansion 1,;Penang,;7,;MY,;10050,;(5.42225980758667 100.327003479004),;5.42225980758667,;100.32700347900391,
1011273,;Bukit Raja (Closed),;33935-190524,;03-33432842,;Persiaran Bukit Raja 2Bandar Baru Klang Lot G51 Ground Floor,;Persiaran Bukit Raja 2Bandar Baru Klang,;Klang,;10,;MY,;41150,;(3.06110191345215 101.472358703613),;3.061101913452148,;101.47235870361328,
1013239,;Alor Setar DT,;26445-240449,;04733 8094,;Jalan Alor Mengkudu PT13875138761387778 & part of PT6189,;Jalan Alor Mengkudu,;Alor Setar,;2,;MY,;5400,;(6.09631013870239 100.376647949219),;6.096310138702393,;100.37664794921875,
1013690,;TREC,;28994-252012,;,;E-G-15 & E-A-15 Ground Floor Electric Boulevard TREC,;E-G-15 & E-A-15 Ground Floor,;Kuala Lumpur,;14,;MY,;50450,;(3.1534628868103 101.700660705566),;3.153462886810303,;101.70066070556641,
1013936,;Alamanda 2 at AGC,;33953-222728,;,;Bangunan Jabatan Peguan Negara AGC Persint 4 Lot 1 Level 1,;Bangunan Jabatan Peguan Negara AGC,;Putrajaya,;10,;MY,;62100,;(2.93943500518799 101.710304260254),;2.939435005187988,;101.71030426025391,
1014211,;Sooka Sentral (Closed),;7028-254567,;03-27807188,;Jalan Stesen Sentral 5 G2B Ground Floor,;Jalan Stesen Sentral 5,;Kuala Lumpur Sentral,;14,;MY,;50470,;(3.13002991676331 101.685997009277),;3.130029916763306,;101.68599700927734,
1013879,;Vivacity Megamall,;26909-228505,;82263673,;NA Na,;NA,;NA,;13,;MY,;NA,;(1.52876996994019 110.362030029297),;1.528769969940186,;110.36203002929688,
1014014,;Seri Austin DT,;28255-250643,;,;Jalan Seri Austin 1 Taman Seri Austin,;Jalan Seri Austin 1,;Johor Bahru,;1,;MY,;81100,;(1.58027005195618 103.747108459473),;1.580270051956177,;103.74710845947266,
1013062,;Da Men,;25804-242471,;,;Lot LG-8 Lower Ground Floor Jalan USJ Sentral 1 USJ Sentral,;Lot LG-8 Lower Ground Floor,;Subang Jaya,;10,;MY,;47500,;(3.07143807411194 101.576950073242),;3.071438074111938,;101.57695007324219,
1011164,;Kota Laksamana DT,;24106-235604,;,;Plot B Lot 2065 Pekan Klebang Seksyen IV,;Plot B Lot 2065,;Melaka,;4,;MY,;,;(2.20650005340576 102.217628479004),;2.206500053405762,;102.21762847900391,
1014309,;KSL Resort,;29788-255372,;,;32 Jalan Seladang Taman Abad Johor Bahru,;32 Jalan Seladang Taman Abad,;Johor,;16,;MY,;80250,;(1.48422002792358 103.762771606445),;1.484220027923584,;103.76277160644531,
1010414,;Menara TA One,;23674-218085,;017603 6211,;Ground Floor Menara TA One 22 Jln P Ramlee,;Ground Floor Menara TA One,;Kuala Lumpur,;14,;MY,;50250,;(3.15645003318787 101.709747314453),;3.156450033187866,;101.70974731445313,
1014412,;Muar Bakri,;28251-250642,;,;Lot No. PTB 16019 Ground Floor Jalan Bakri Muar Johor,;Lot No. PTB 16019 Ground Floor,;Muar,;1,;MY,;84000,;(2.05189990997314 102.596000671387),;2.051899909973144,;102.59600067138672,
1014504,;Sunway Pyramid 3,;29921-255992,;,;SP3G001GFSunway Pyramid Shopping Mall3 3 Jln PJS 11/15 Bandar Sunway,;SP3G001GFSunway Pyramid Shopping Mall3,;Petaling Jaya,;10,;MY,;47500,;(3.06537008285522 101.591003417969),;3.065370082855225,;101.59100341796875,
1014404,;Kota Kinabalu Intl Airport (Landsid,;47722-259544,;,;L1L10 Lvl 1 Landside Terminal 1,;L1L10 Lvl 1 Landside Terminal 1,;Sabah,;12,;MY,;88740,;(5.97046995162964 116.086532592773),;5.970469951629639,;116.08653259277344,
1013876,;Raja Uda DT,;26885-245712,;,;Butterworth Business City Centre Jalan Raja Uda,;Butterworth Business City Centre,;Butterworth,;7,;MY,;12300,;(5.42611980438232 100.38200378418),;5.426119804382324,;100.38200378417969,
1014728,;Mines City DT,;47928-260550,;,;L3-19AP Level 3 The Mines Jalan Dulang MINES Resort City,;L3-19AP Level 3 The Mines,;Seri Kembangan,;10,;MY,;43300,;(3.02774810791016 101.718315124512),;3.027748107910156,;101.71831512451172,
1014646,;Fisherman's Wharf Langkawi,;47927-260549,;,;Jalan Dato' Syed Omar Kuah,;Jalan Dato' Syed Omar,;Langkawi Kedah,;2,;MY,;7000,;(6.3034200668335 99.8517379760742),;6.303420066833496,;99.851737976074219,
1014727,;D Pulze,;47836-260028,;,;G 28 D PULZE Shopping Centre Lingkaran Cyber Point Timur Cyber 12,;G 28 D PULZE Shopping Centre,;Cyberjaya,;10,;MY,;63000,;(2.92227602005005 101.650833129883),;2.922276020050049,;101.65083312988281,
1014204,;Petronas Equine Park DT,;29875-255627,;,;Petronas Station Equine Park 1 Mukim Petaling Seri Kembangan,;Petronas Station Equine Park 1,;Selangor,;10,;MY,;43300,;(2.96949005126953 101.667999267578),;2.969490051269531,;101.66799926757813,
1014750,;KLIA 2 Satellite,;48353-263108,;,;Lot No. S6-2-A41 Departure Level,;Lot No. S6-2-A41 Departure Level,;Sepang,;10,;MY,;64000,;(2.73935604095459 101.68879699707),;2.73935604095459,;101.68879699707031,
1010161,;Seri Alam,;18927-184364,;,;8 Jalan Suria Bandar Seri Alam,;8 Jalan Suria,;Johor Bahru,;1,;MY,;81750,;(1.49549996852875 103.874320983887),;1.495499968528748,;103.87432098388672,
1014380,;Tesco Bandar Bukit Puchong,;29248-253094,;,;Lot G1 Grd Flr Tesco Bdr Bkt Puchong PT 80259 Jln BP7/1 Bdr Bkt Puchong,;Lot G1 Grd Flr Tesco Bdr Bkt Puchong,;Mukim Petaling,;10,;MY,;47110,;(3.08068990707397 101.447250366211),;3.080689907073975,;101.44725036621094,
1015058,;Sibu Pedada,;47946-260564,;,;Lot 3047 Block 3 Sibu Town District Jalan Pedada,;Lot 3047 Block 3 Sibu Town District,;Sibu,;13,;MY,;96000,;(2.30845093727112 111.845329284668),;2.308450937271118,;111.84532928466797,
1015336,;Mitsui Outlet Park,;48865-265667,;,;Lot G65 Mitsui Outlet Park KLIA Sepang,;Lot G65 Mitsui Outlet Park,;Selangor,;10,;MY,;64000,;(2.77906608581543 101.676559448242),;2.77906608581543,;101.67655944824219,
1014778,;IOI Mall Kulai DT,;47501-258464,;,;Lot No. G-OSE 3/5/6 GF IOI Mall Kulai Lebuh Putra Utama Bandar Putra,;Lot No. G-OSE 3/5/6 GF IOI Mall Kulai,;Kulai Johor,;1,;MY,;81000,;(1.68064999580383 103.602996826172),;1.680649995803833,;103.60299682617188,
1015389,;Labuan Airport,;49170-267228,;,;L1L06 Level 1 Landside Labuan Airport Jalan Tun Mustapha Taman Sec Airport,;L1L06 Level 1 Landside Labuan Airport,;Labuan,;15,;MY,;87015,;(5.29558181762695 115.262069702148),;5.295581817626953,;115.26206970214844,
1015632,;Amcorp Tower,;48866-265645,;,;G-01 Grd Flr Amcorp Tower 18 Persiaran Barat,;G-01 Grd Flr Amcorp Tower,;Petaling Jaya Selangor,;10,;MY,;46050,;(3.10456991195679 101.647346496582),;3.104569911956787,;101.64734649658203,
1015847,;Ampang DT,;48876-265646,;,;Lot 4258 & 4259 Jalan Ampang,;Lot 4258 & 4259 Jalan Ampang,;Kuala Lumpur,;14,;MY,;50450,;(3.09347891807556 101.44361114502),;3.093478918075562,;101.44361114501953,
1015883,;Segamat Sri Utama,;49288-267945,;,;Ground & 1st Floor No. 25 Jalan Utama 3/2,;Ground & 1st Floor No. 25,;Segamat Johor,;1,;MY,;85000,;(2.51436400413513 102.823181152344),;2.514364004135132,;102.82318115234375,
1016101,;Marina Parkcity DT,;47500-258465,;,;No. 1 Block 9 Miri Concession Land District,;No. 1 Block 9,;Miri Sarawak,;13,;MY,;98000,;(4.28936004638672 114.030113220215),;4.289360046386719,;114.03011322021484,
1007996,;Petronas Service Stat - Federal Hwy,;18453-173544,;,;KM 18.5 Federal Highway - KL Bound,;KM 18.5 Federal Highway - KL Bound,;Kuala Lumpur,;14,;MY,;,;(3.08353996276855 101.582359313965),;3.083539962768555,;101.58235931396484,